NORAD_CAT_ID,OBJECT_NAME,OBJECT_TYPE,EPOCH,MEAN_MOTION,ECCENTRICITY,INCLINATION,RA_OF_ASC_NODE,ARG_OF_PERICENTER,MEAN_ANOMALY,BSTAR,MEAN_MOTION_DOT,MEAN_MOTION_DDOT,TLE_LINE0,TLE_LINE1,TLE_LINE2,SEMIMAJOR_AXIS,PERIOD,APOGEE,PERIGEE,DECAYED
52841.0,STARLINK-4065,PAYLOAD,2022-08-07 22:00:00,15.28115013,0.0001641,53.2177,154.3963,51.905,138.0845,-0.04421,-0.01120665,0.0,0 STARLINK-4065,1 52841U 22062M   22219.91667824 -.01120665  00000-0 -44210-1 0  9996,2 52841  53.2177 154.3963 0001641  51.9050 138.0845 15.28115013  1300,6859.585,94.234,482.575,480.324,0.0
52841.0,STARLINK-4065,PAYLOAD,2022-08-08 05:02:17,15.29360736,0.0001943,53.2172,153.0288,40.879,319.2357,-0.012237,-0.00337972,0.0,0 STARLINK-4065,1 52841U 22062M   22220.20992217 -.00337972  00000-0 -12237-1 0  9991,2 52841  53.2172 153.0288 0001943  40.8790 319.2357 15.29360736  8587,6855.859,94.157,479.056,476.392,0.0
52841.0,STARLINK-4065,PAYLOAD,2022-08-08 14:00:01,15.26509738,0.000162,53.2176,151.3218,45.5899,212.0283,-0.046462,-0.01121199,0.0,0 STARLINK-4065,1 52841U 22062M   22220.58335648 -.01121199  00000-0 -46462-1 0  9991,2 52841  53.2176 151.3218 0001620  45.5899 212.0283 15.26509738  1304,6864.393,94.333,487.37,485.146,0.0
52841.0,STARLINK-4065,PAYLOAD,2022-08-08 22:00:00,15.25706763,0.0001493,53.2175,149.7879,52.0414,237.848,-0.047591,-0.0112076,0.0,0 STARLINK-4065,1 52841U 22062M   22220.91667824 -.01120760  00000-0 -47591-1 0  9999,2 52841  53.2175 149.7879 0001493  52.0414 237.8480 15.25706763  1301,6866.801,94.382,489.691,487.641,0.0
52841.0,STARLINK-4065,PAYLOAD,2022-08-09 14:00:01,15.24100499,0.0001473,53.2175,146.7247,43.2481,308.4182,-0.04994,-0.01135226,0.0,0 STARLINK-4065,1 52841U 22062M   22221.58334491 -.01135226  00000-0 -49940-1 0  9997,2 52841  53.2175 146.7247 0001473  43.2481 308.4182 15.24100499  8798,6871.625,94.482,494.502,492.478,0.0
52841.0,STARLINK-4065,PAYLOAD,2022-08-09 22:00:00,15.23299096,0.0001531999999999,53.2176,145.1967,43.8401,337.266,-0.051253,-0.011373,0.0,0 STARLINK-4065,1 52841U 22062M   22221.91667824 -.01137300  00000-0 -51253-1 0  9998,2 52841  53.2176 145.1967 0001532  43.8401 337.2660 15.23299096  1307,6874.035,94.532,496.953,494.847,0.0
52841.0,STARLINK-4065,PAYLOAD,2022-08-10 14:00:01,15.21690713,0.0001817,53.2175,142.1445,34.1722,42.9227,-0.053562,-0.01133426,0.0,0 STARLINK-4065,1 52841U 22062M   22222.58334491 -.01133426  00000-0 -53562-1 0  9993,2 52841  53.2175 142.1445 0001817  34.1722  42.9227 15.21690713  1307,6878.878000000002,94.632,501.992,499.49300000000005,0.0
52841.0,STARLINK-4065,PAYLOAD,2022-08-10 17:07:18,15.21377389,0.0001819,53.2173,141.5496,35.4882,34.4552,-0.054061,-0.0113344,0.0,0 STARLINK-4065,1 52841U 22062M   22222.71341435 -.01133440  00000-0 -54061-1 0  9995,2 52841  53.2173 141.5496 0001819  35.4882  34.4552 15.21377389  8964,6879.821999999999,94.651,502.93800000000016,500.436,0.0
52841.0,STARLINK-4065,PAYLOAD,2022-08-10 22:00:00,15.20889408,0.0001916999999999,53.2175,140.6223,35.7988,67.8413,-0.0549679999999999,-0.01135818,0.0,0 STARLINK-4065,1 52841U 22062M   22222.91667824 -.01135818  00000-0 -54968-1 0  9997,2 52841  53.2175 140.6223 0001917  35.7988  67.8413 15.20889408  1309,6881.294,94.681,504.478,501.839,0.0
52841.0,STARLINK-4065,PAYLOAD,2022-08-11 14:00:01,15.19281496,0.0001915,53.2174,137.5813,37.4898,116.3499,-0.057412,-0.01132014,0.0,0 STARLINK-4065,1 52841U 22062M   22223.58334491 -.01132014  00000-0 -57412-1 0  9994,2 52841  53.2174 137.5813 0001915  37.4898 116.3499 15.19281496  1300,6886.148,94.782,509.332,506.694,0.0
52841.0,STARLINK-4065,PAYLOAD,2022-08-11 22:00:00,15.18478979,0.0002020999999999,53.2176,136.0648,37.2769,140.214,-0.058797,-0.01132534,0.0,0 STARLINK-4065,1 52841U 22062M   22223.91667824 -.01132534  00000-0 -58797-1 0  9994,2 52841  53.2176 136.0648 0002021  37.2769 140.2140 15.18478979  9159,6888.574000000001,94.832,511.831,509.047,0.0
52841.0,STARLINK-4065,PAYLOAD,2022-08-12 14:00:01,15.16872354,0.0001869,53.2174,133.0349,39.5796,182.3215,-0.061492,-0.01130795,0.0,0 STARLINK-4065,1 52841U 22062M   22224.58334491 -.01130795  00000-0 -61492-1 0  9992,2 52841  53.2174 133.0349 0001869  39.5796 182.3215 15.16872354  1308,6893.437,94.932,516.59,514.014,0.0
52841.0,STARLINK-4065,PAYLOAD,2022-08-12 20:00:01,15.1627077,0.0002099,53.2177,131.9011,34.5317,113.091,-0.062644,-0.01132175,0.0,0 STARLINK-4065,1 52841U 22062M   22224.83335648 -.01132175  00000-0 -62644-1 0  9999,2 52841  53.2177 131.9011 0002099  34.5317 113.0910 15.16270770  9297,6895.26,94.97,518.573,515.678,0.0
52841.0,STARLINK-4065,PAYLOAD,2022-08-12 22:00:01,15.16069544,0.0002008,53.2175,131.5243,36.3112,206.4098,-0.062924,-0.01130788,0.0,0 STARLINK-4065,1 52841U 22062M   22224.91668981 -.01130788  00000-0 -62924-1 0  9996,2 52841  53.2175 131.5243 0002008  36.3112 206.4098 15.16069544  1304,6895.87,94.982,519.12,516.351,0.0
52841.0,STARLINK-4065,PAYLOAD,2022-08-13 14:00:01,15.14462897,0.0001738,53.2174,128.5054,39.8284,241.4511,-0.06579,-0.01129392,0.0,0 STARLINK-4065,1 52841U 22062M   22225.58334491 -.01129392  00000-0 -65790-1 0  9999,2 52841  53.2174 128.5054 0001738  39.8284 241.4511 15.14462897  1301,6900.746999999999,95.083,523.811,521.4119999999998,0.0
52841.0,STARLINK-4065,PAYLOAD,2022-08-13 22:00:00,15.13661091,0.0001803,53.2174,127.0005,38.7536,260.3875,-0.067388,-0.01130742,0.0,0 STARLINK-4065,1 52841U 22062M   22225.91667824 -.01130742  00000-0 -67388-1 0  9991,2 52841  53.2174 127.0005 0001803  38.7536 260.3875 15.13661091  1301,6903.183000000001,95.134,526.293,523.804,0.0
52841.0,STARLINK-4065,PAYLOAD,2022-08-14 14:00:01,15.12053414,0.0001573,53.2174,123.9928,42.7183,289.2562,-0.070336,-0.01128159,0.0,0 STARLINK-4065,1 52841U 22062M   22226.58334491 -.01128159  00000-0 -70336-1 0  9992,2 52841  53.2174 123.9928 0001573  42.7183 289.2562 15.12053414  9558,6908.076,95.235,531.0269999999998,528.854,0.0
52841.0,STARLINK-4065,PAYLOAD,2022-08-14 22:00:00,15.11252765,0.000187,53.2174,122.4935,34.0125,312.9287,-0.07214,-0.01131276,0.0,0 STARLINK-4065,1 52841U 22062M   22226.91667824 -.01131276  00000-0 -72140-1 0  9997,2 52841  53.2174 122.4935 0001870  34.0125 312.9287 15.11252765  1302,6910.515,95.285,533.673,531.0880000000002,0.0
52841.0,STARLINK-4065,PAYLOAD,2022-08-15 14:00:01,15.09518354,0.0001786,53.2173,119.4957,43.4091,330.598,-0.04819,-0.00726804,0.0,0 STARLINK-4065,1 52841U 22062M   22227.58334491 -.00726804  00000-0 -48190-1 0  9996,2 52841  53.2173 119.4957 0001786  43.4091 330.5980 15.09518354  1305,6915.808000000001,95.395,538.908,536.438,0.0
52841.0,STARLINK-4065,PAYLOAD,2022-08-15 16:00:00,15.093187599999998,0.0001873,53.2175,119.1213,43.078,64.0323,-0.038188,-0.00575678,0.0,0 STARLINK-4065,1 52841U 22062M   22227.66667824 -.00575678  00000-0 -38188-1 0  9991,2 52841  53.2175 119.1213 0001873  43.0780  64.0323 15.09318760  9719,6916.417,95.407,539.578,536.987,0.0
52841.0,STARLINK-4065,PAYLOAD,2022-08-15 22:00:00,15.08868801,0.0001979,53.2174,118.0004,41.551,344.5705,-0.0033561999999999,-0.0005335,0.0,0 STARLINK-4065,1 52841U 22062M   22227.91667824 -.00053350  00000-0 -33562-2 0  9999,2 52841  53.2174 118.0004 0001979  41.5510 344.5705 15.08868801  1307,6917.792,95.436,541.026,538.288,0.0
52841.0,STARLINK-4065,PAYLOAD,2022-08-16 06:00:02,15.08855069,0.0001888,53.2181,116.4995,38.5224,359.2238,0.0013573,0.00021388,0.0,0 STARLINK-4065,1 52841U 22062M   22228.25002315  .00021388  00000-0  13573-2 0  9999,2 52841  53.2181 116.4995 0001888  38.5224 359.2238 15.08855069  9802,6917.834,95.437,541.005,538.393,0.0
52841.0,STARLINK-4065,PAYLOAD,2022-08-16 14:00:01,15.08862337,0.000166,53.2192,114.9966,46.1741,3.1508,-0.00044097,-7.304e-05,0.0,0 STARLINK-4065,1 52841U 22062M   22228.58334491 -.00007304  00000-0 -44097-3 0  9998,2 52841  53.2192 114.9966 0001660  46.1741   3.1508 15.08862337  1300,6917.812,95.436,540.825,538.529,0.0
52841.0,STARLINK-4065,PAYLOAD,2022-08-16 22:00:00,15.08862151,0.0001791,53.2193,113.5017,43.5646,17.3896,-0.00507,-0.0008013,0.0,0 STARLINK-4065,1 52841U 22062M   22228.91667824 -.00080130  00000-0 -50700-2 0  9999,2 52841  53.2193 113.5017 0001791  43.5646  17.3896 15.08862151  9908,6917.813,95.436,540.9169999999998,538.439,0.0
52841.0,STARLINK-4065,PAYLOAD,2022-08-17 14:00:01,15.08796454,0.0001591,53.2192,110.5076,46.7747,37.3332,0.0029655,0.00047168,0.0,0 STARLINK-4065,1 52841U 22062M   22229.58334491  .00047168  00000-0  29655-2 0  9991,2 52841  53.2192 110.5076 0001591  46.7747  37.3332 15.08796454 10006,6918.013000000001,95.44,540.979,538.778,0.0
52841.0,STARLINK-4065,PAYLOAD,2022-08-17 16:00:00,15.08816274,0.0001621,53.2191,110.1343,48.9878,128.003,0.0012886,0.00020266,0.0,0 STARLINK-4065,1 52841U 22062M   22229.66667824  .00020266  00000-0  12886-2 0  9997,2 52841  53.2191 110.1343 0001621  48.9878 128.0030 15.08816274  1300,6917.953,95.439,540.939,538.697,0.0
52841.0,STARLINK-4065,PAYLOAD,2022-08-18 08:00:01,15.0885638,0.0001684,53.2189,107.1419,44.0464,156.1108,-0.0013997999999999,-0.00022507,0.0,0 STARLINK-4065,1 52841U 22062M   22230.33334491 -.00022507  00000-0 -13998-2 0  9991,2 52841  53.2189 107.1419 0001684  44.0464 156.1108 15.08856380 10124,6917.83,95.437,540.86,538.53,0.0
52841.0,STARLINK-4065,PAYLOAD,2022-08-18 14:00:01,15.08831802,0.00016,53.219,106.0188,48.9457,69.9223,0.0029873,0.00047565,0.0,0 STARLINK-4065,1 52841U 22062M   22230.58334491  .00047565  00000-0  29873-2 0  9996,2 52841  53.2190 106.0188 0001600  48.9457  69.9223 15.08831802  1301,6917.905,95.438,540.877,538.664,0.0
52841.0,STARLINK-4065,PAYLOAD,2022-08-18 22:00:00,15.08866734,0.0001786,53.2189,104.5242,45.7782,84.6956,-0.00096272,-0.00015588,0.0,0 STARLINK-4065,1 52841U 22062M   22230.91667824 -.00015588  00000-0 -96272-3 0  9992,2 52841  53.2189 104.5242 0001786  45.7782  84.6956 15.08866734  1303,6917.799,95.436,540.899,538.428,0.0
